start=new Date('2021-12-17T00:00:00.000Z').valueOf();
sats=[{"REV_AT_EPOCH":"10256","MEAN_ANOMALY":"260.1732","ELEMENT_SET_NO":"999","TLE_LINE2":"2 45228  53.0549  98.0995 0001283  99.9401 260.1732 15.06401893102567","REF_FRAME":"TEME","CLASSIFICATION_TYPE":"U","OBJECT_ID":"2020-012BC","INCLINATION":"53.0549","COUNTRY_CODE":"US","NORAD_CAT_ID":"45228","MEAN_MOTION_DOT":"-0.00000167","MEAN_ELEMENT_THEORY":"SGP4","OBJECT_TYPE":"PAYLOAD","SEMIMAJOR_AXIS":"6925.343","RA_OF_ASC_NODE":"98.0995","OBJECT_NAME":"STARLINK-1222","BSTAR":"0.00000766210000","MEAN_MOTION":"15.06401893","SITE":"AFETR","DECAY_DATE":null,"MEAN_MOTION_DDOT":"0.0000000000000","ECCENTRICITY":"0.00012830","GP_ID":"191859400","PERIAPSIS":"546.319","EPOCH":"2021-12-16T15:28:22.162080","ARG_OF_PERICENTER":"99.9401","PERIOD":"95.592","TLE_LINE1":"1 45228U 20012BC  21350.64470095 -.00000167  00000-0  76621-5 0  9994","FILE":"3242223","EPHEMERIS_TYPE":"0","LAUNCH_DATE":"2020-02-17","APOAPSIS":"548.096","RCS_SIZE":"LARGE","CENTER_NAME":"EARTH","TIME_SYSTEM":"UTC"},{"RA_OF_ASC_NODE":"97.9679","SEMIMAJOR_AXIS":"6925.342","MEAN_ELEMENT_THEORY":"SGP4","MEAN_MOTION_DOT":"0.00001657","NORAD_CAT_ID":"45229","OBJECT_TYPE":"PAYLOAD","DECAY_DATE":null,"SITE":"AFETR","MEAN_MOTION":"15.06402161","MEAN_MOTION_DDOT":"0.0000000000000","OBJECT_NAME":"STARLINK-1226","BSTAR":"0.00013011000000","ELEMENT_SET_NO":"999","MEAN_ANOMALY":"267.9253","REV_AT_EPOCH":"10257","COUNTRY_CODE":"US","INCLINATION":"53.0560","REF_FRAME":"TEME","TLE_LINE2":"2 45229  53.0560  97.9679 0001437  92.1900 267.9253 15.06402161102571","CLASSIFICATION_TYPE":"U","OBJECT_ID":"2020-012BD","PERIOD":"95.592","LAUNCH_DATE":"2020-02-17","TLE_LINE1":"1 45229U 20012BD  21350.67418132  .00001657  00000-0  13011-3 0  9998","FILE":"3242223","EPHEMERIS_TYPE":"0","TIME_SYSTEM":"UTC","CENTER_NAME":"EARTH","APOAPSIS":"548.202","RCS_SIZE":"LARGE","ECCENTRICITY":"0.00014370","GP_ID":"191858148","PERIAPSIS":"546.212","EPOCH":"2021-12-16T16:10:49.266048","ARG_OF_PERICENTER":"92.1900"},{"GP_ID":"191838213","ECCENTRICITY":"0.00013550","PERIAPSIS":"546.271","ARG_OF_PERICENTER":"99.9081","EPOCH":"2021-12-17T00:03:13.446144","PERIOD":"95.592","EPHEMERIS_TYPE":"0","TLE_LINE1":"1 45230U 20012BE  21351.00223896  .00000214  00000-0  33283-4 0  9991","FILE":"3242182","LAUNCH_DATE":"2020-02-17","TIME_SYSTEM":"UTC","RCS_SIZE":"LARGE","APOAPSIS":"548.148","CENTER_NAME":"EARTH","ELEMENT_SET_NO":"999","REV_AT_EPOCH":"10179","MEAN_ANOMALY":"260.2061","INCLINATION":"53.0549","COUNTRY_CODE":"US","REF_FRAME":"TEME","TLE_LINE2":"2 45230  53.0549  96.4970 0001355  99.9081 260.2061 15.06401258101794","CLASSIFICATION_TYPE":"U","OBJECT_ID":"2020-012BE","SEMIMAJOR_AXIS":"6925.345","RA_OF_ASC_NODE":"96.4970","NORAD_CAT_ID":"45230","MEAN_ELEMENT_THEORY":"SGP4","MEAN_MOTION_DOT":"0.00000214","OBJECT_TYPE":"PAYLOAD","MEAN_MOTION":"15.06401258","SITE":"AFETR","DECAY_DATE":null,"MEAN_MOTION_DDOT":"0.0000000000000","OBJECT_NAME":"STARLINK-1227","BSTAR":"0.00003328300000"},{"ELEMENT_SET_NO":"999","MEAN_ANOMALY":"36.5777","REV_AT_EPOCH":"10372","COUNTRY_CODE":"US","INCLINATION":"53.0320","OBJECT_ID":"2020-012BF","CLASSIFICATION_TYPE":"U","REF_FRAME":"TEME","TLE_LINE2":"2 45231  53.0320  14.9577 0008036 323.4694  36.5777 15.76761315103721","RA_OF_ASC_NODE":"14.9577","SEMIMAJOR_AXIS":"6717.761","OBJECT_TYPE":"PAYLOAD","MEAN_ELEMENT_THEORY":"SGP4","MEAN_MOTION_DOT":"0.00011407","NORAD_CAT_ID":"45231","MEAN_MOTION_DDOT":"0.0000000000000","DECAY_DATE":null,"SITE":"AFETR","MEAN_MOTION":"15.76761315","BSTAR":"0.00007341400000","OBJECT_NAME":"STARLINK-1229","ECCENTRICITY":"0.00080360","GP_ID":"191859150","ARG_OF_PERICENTER":"323.4694","EPOCH":"2021-12-16T18:51:40.755168","PERIAPSIS":"334.227","LAUNCH_DATE":"2020-02-17","FILE":"3242223","TLE_LINE1":"1 45231U 20012BF  21350.78588837  .00011407  00000-0  73414-4 0  9991","EPHEMERIS_TYPE":"0","PERIOD":"91.326","TIME_SYSTEM":"UTC","CENTER_NAME":"EARTH","APOAPSIS":"345.024","RCS_SIZE":"LARGE"},{"PERIOD":"95.592","LAUNCH_DATE":"2020-02-17","TLE_LINE1":"1 45232U 20012BG  21351.01329454  .00000209  00000-0  32936-4 0  9999","EPHEMERIS_TYPE":"0","FILE":"3242188","TIME_SYSTEM":"UTC","CENTER_NAME":"EARTH","RCS_SIZE":"LARGE","APOAPSIS":"548.070","ECCENTRICITY":"0.00012420","GP_ID":"191838253","PERIAPSIS":"546.350","ARG_OF_PERICENTER":"96.8711","EPOCH":"2021-12-17T00:19:08.648256","RA_OF_ASC_NODE":"96.4460","SEMIMAJOR_AXIS":"6925.345","MEAN_MOTION_DOT":"0.00000209","MEAN_ELEMENT_THEORY":"SGP4","NORAD_CAT_ID":"45232","OBJECT_TYPE":"PAYLOAD","DECAY_DATE":null,"SITE":"AFETR","MEAN_MOTION":"15.06401072","MEAN_MOTION_DDOT":"0.0000000000000","OBJECT_NAME":"STARLINK-1235","BSTAR":"0.00003293600000","ELEMENT_SET_NO":"999","MEAN_ANOMALY":"263.2419","REV_AT_EPOCH":"10177","COUNTRY_CODE":"US","INCLINATION":"53.0550","REF_FRAME":"TEME","TLE_LINE2":"2 45232  53.0550  96.4460 0001242  96.8711 263.2419 15.06401072101775","CLASSIFICATION_TYPE":"U","OBJECT_ID":"2020-012BG"},{"SEMIMAJOR_AXIS":"6925.327","RA_OF_ASC_NODE":"117.4314","OBJECT_TYPE":"PAYLOAD","NORAD_CAT_ID":"45233","MEAN_MOTION_DOT":"-0.00000405","MEAN_ELEMENT_THEORY":"SGP4","MEAN_MOTION_DDOT":"0.0000000000000","SITE":"AFETR","MEAN_MOTION":"15.06406880","DECAY_DATE":null,"BSTAR":"-0.00000828490000","OBJECT_NAME":"STARLINK-1238","ELEMENT_SET_NO":"999","REV_AT_EPOCH":"10147","MEAN_ANOMALY":"256.5381","INCLINATION":"53.0562","COUNTRY_CODE":"US","CLASSIFICATION_TYPE":"U","OBJECT_ID":"2020-012BH","TLE_LINE2":"2 45233  53.0562 117.4314 0001896 103.5819 256.5381 15.06406880101473","REF_FRAME":"TEME","EPHEMERIS_TYPE":"0","TLE_LINE1":"1 45233U 20012BH  21350.79398870 -.00000405  00000-0 -82849-5 0  9991","FILE":"3242185","LAUNCH_DATE":"2020-02-17","PERIOD":"95.592","TIME_SYSTEM":"UTC","APOAPSIS":"548.506","RCS_SIZE":"LARGE","CENTER_NAME":"EARTH","ECCENTRICITY":"0.00018960","GP_ID":"191838262","ARG_OF_PERICENTER":"103.5819","EPOCH":"2021-12-16T19:03:20.623680","PERIAPSIS":"545.879"},{"PERIAPSIS":"545.625","EPOCH":"2021-12-16T21:34:37.757568","ARG_OF_PERICENTER":"95.5499","ECCENTRICITY":"0.00022450","GP_ID":"191838276","TIME_SYSTEM":"UTC","CENTER_NAME":"EARTH","APOAPSIS":"548.735","RCS_SIZE":"LARGE","PERIOD":"95.591","LAUNCH_DATE":"2020-02-17","FILE":"3242186","TLE_LINE1":"1 45234U 20012BJ  21350.89904812  .00001355  00000-0  10982-3 0  9992","EPHEMERIS_TYPE":"0","COUNTRY_CODE":"US","INCLINATION":"53.0530","REF_FRAME":"TEME","TLE_LINE2":"2 45234  53.0530 136.9565 0002245  95.5499 264.5746 15.06410894101245","OBJECT_ID":"2020-012BJ","CLASSIFICATION_TYPE":"U","ELEMENT_SET_NO":"999","MEAN_ANOMALY":"264.5746","REV_AT_EPOCH":"10124","DECAY_DATE":null,"SITE":"AFETR","MEAN_MOTION":"15.06410894","MEAN_MOTION_DDOT":"0.0000000000000","OBJECT_NAME":"STARLINK-1243","BSTAR":"0.00010982000000","RA_OF_ASC_NODE":"136.9565","SEMIMAJOR_AXIS":"6925.315","MEAN_MOTION_DOT":"0.00001355","MEAN_ELEMENT_THEORY":"SGP4","NORAD_CAT_ID":"45234","OBJECT_TYPE":"PAYLOAD"},{"FILE":"3242223","TLE_LINE1":"1 45235U 20012BK  21350.75161284  .00001025  00000-0  87665-4 0  9993","EPHEMERIS_TYPE":"0","LAUNCH_DATE":"2020-02-17","PERIOD":"95.592","TIME_SYSTEM":"UTC","RCS_SIZE":"LARGE","APOAPSIS":"548.565","CENTER_NAME":"EARTH","GP_ID":"191859650","ECCENTRICITY":"0.00019860","EPOCH":"2021-12-16T18:02:19.349376","ARG_OF_PERICENTER":"95.4519","PERIAPSIS":"545.814","SEMIMAJOR_AXIS":"6925.325","RA_OF_ASC_NODE":"137.6356","OBJECT_TYPE":"PAYLOAD","NORAD_CAT_ID":"45235","MEAN_ELEMENT_THEORY":"SGP4","MEAN_MOTION_DOT":"0.00001025","MEAN_MOTION_DDOT":"0.0000000000000","SITE":"AFETR","MEAN_MOTION":"15.06407845","DECAY_DATE":null,"BSTAR":"0.00008766500000","OBJECT_NAME":"STARLINK-1246","ELEMENT_SET_NO":"999","REV_AT_EPOCH":"10215","MEAN_ANOMALY":"264.6697","INCLINATION":"53.0548","COUNTRY_CODE":"US","OBJECT_ID":"2020-012BK","CLASSIFICATION_TYPE":"U","TLE_LINE2":"2 45235  53.0548 137.6356 0001986  95.4519 264.6697 15.06407845102153","REF_FRAME":"TEME"},{"OBJECT_TYPE":"PAYLOAD","MEAN_MOTION_DOT":"-0.00000068","MEAN_ELEMENT_THEORY":"SGP4","NORAD_CAT_ID":"45236","RA_OF_ASC_NODE":"96.5166","SEMIMAJOR_AXIS":"6925.328","BSTAR":"0.00001430700000","OBJECT_NAME":"STARLINK-1247","MEAN_MOTION_DDOT":"0.0000000000000","DECAY_DATE":null,"MEAN_MOTION":"15.06406581","SITE":"AFETR","MEAN_ANOMALY":"255.0859","REV_AT_EPOCH":"10179","ELEMENT_SET_NO":"999","OBJECT_ID":"2020-012BL","CLASSIFICATION_TYPE":"U","TLE_LINE2":"2 45236  53.0543  96.5166 0001233 105.0267 255.0859 15.06406581101793","REF_FRAME":"TEME","COUNTRY_CODE":"US","INCLINATION":"53.0543","LAUNCH_DATE":"2020-02-17","EPHEMERIS_TYPE":"0","TLE_LINE1":"1 45236U 20012BL  21350.99854574 -.00000068  00000-0  14307-4 0  9991","FILE":"3242186","PERIOD":"95.592","CENTER_NAME":"EARTH","APOAPSIS":"548.047","RCS_SIZE":"LARGE","TIME_SYSTEM":"UTC","ECCENTRICITY":"0.00012330","GP_ID":"191838427","ARG_OF_PERICENTER":"105.0267","EPOCH":"2021-12-16T23:57:54.351936","PERIAPSIS":"546.339"},{"OBJECT_ID":"2020-012BM","CLASSIFICATION_TYPE":"U","TLE_LINE2":"2 45237  53.0556  98.2166 0001585 106.6411 253.4752 15.06406829102672","REF_FRAME":"TEME","INCLINATION":"53.0556","COUNTRY_CODE":"US","REV_AT_EPOCH":"10267","MEAN_ANOMALY":"253.4752","ELEMENT_SET_NO":"999","BSTAR":"0.00003477200000","OBJECT_NAME":"STARLINK-1270","MEAN_MOTION_DDOT":"0.0000000000000","SITE":"AFETR","MEAN_MOTION":"15.06406829","DECAY_DATE":null,"OBJECT_TYPE":"PAYLOAD","NORAD_CAT_ID":"45237","MEAN_MOTION_DOT":"0.00000237","MEAN_ELEMENT_THEORY":"SGP4","SEMIMAJOR_AXIS":"6925.328","RA_OF_ASC_NODE":"98.2166","EPOCH":"2021-12-16T14:56:31.385472","ARG_OF_PERICENTER":"106.6411","PERIAPSIS":"546.095","ECCENTRICITY":"0.00015850","GP_ID":"191858149","APOAPSIS":"548.290","RCS_SIZE":"LARGE","CENTER_NAME":"EARTH","TIME_SYSTEM":"UTC","FILE":"3242223","TLE_LINE1":"1 45237U 20012BM  21350.62258548  .00000237  00000-0  34772-4 0  9996","EPHEMERIS_TYPE":"0","LAUNCH_DATE":"2020-02-17","PERIOD":"95.592"}];
